ONEWEB-0311             
1 49097U 21075Y   25058.57066204  .00000122  00000+0  28084-3 0  9993
2 49097  87.9026 100.4151 0001479  99.2084 260.9215 13.17648261171124
ONEWEB-0312             
1 49098U 21075Z   25058.13022861  .00000026  00000+0  34609-4 0  9991
2 49098  87.9030 100.5343 0001633  86.4567 273.6751 13.17647768171048
ONEWEB-0313             
1 49099U 21075AA  25058.51484051  .00000091  00000+0  20048-3 0  9990
2 49099  87.9027 100.4730 0001707  91.6922 268.4405 13.17648580171084
ONEWEB-0314             
1 49100U 21075AB  25058.55715145  .00000102  00000+0  23069-3 0  9997
2 49100  87.9016 100.4000 0001546  87.8872 272.2437 13.17647966171060
ONEWEB-0315             
1 49101U 21075AC  25058.48056386 -.00000355  00000+0 -10232-2 0  9994
2 49101  87.8799  85.1458 0001534 102.1854 257.9446 13.12441920172903
ONEWEB-0316             
1 49102U 21075AD  25058.47613231  .00000077  00000+0  16362-3 0  9992
2 49102  87.9049  69.8663 0001671  91.9789 268.1534 13.18684443174644
ONEWEB-0317             
1 49103U 21075AE  25058.47407582 -.00000235  00000+0 -68939-3 0  9998
2 49103  87.8804  85.1609 0002390  91.7582 268.3821 13.12443633172920
ONEWEB-0318             
1 49104U 21075AF  25058.47296945  .00000086  00000+0  18509-3 0  9998
2 49104  87.9047  69.8537 0001581  93.1910 266.9403 13.18684443174601
